#dP2019  5 13  0  0  0.00000000      96 __u+U ITR00 FIT  IAC
## 2053  86400.00000000   900.00000000 58616 0.0000000000000
+   98   C01C02C03C04C05C06C07C08C09C10C11C12C13C14C16E01E02
+        E03E04E05E07E08E09E11E12E13E14E15E18E19E21E24E25E26
+        E27E30E31E33E36G01G02G03G04G05G06G07G08G09G10G11G12
+        G13G14G15G16G17G18G19G20G21G22G23G24G25G26G27G28G29
+        G30G31G32J01J02J03J07R01R02R03R04R05R07R08R09R10R11
+        R13R14R15R16R17R18R19R20R21R22R23R24R26  0  0  0  0
++        12 12  0 12 12  9  9  9  9  8  8  8  9  8  9  5  5
++         5  5  5  5  5  5  5  5  5  5  5  5  5  6  5  5  5
++         5  5  5  5  5  3  3  3  4  3  3  3  3  3  3  3  3
++         3  3  3  3  3  3  3  3  3  3  3  3  3  3  3  3  3
++         3  3  3  9 10 10 15  6  5  5  5  5  5  6  5  6  5
++         5  5  5  5  5  5  5  5  5  5  5  6  8  0  0  0  0
%c M  cc GPS ccc cccc cccc cccc cccc ccccc ccccc ccccc ccccc
%c cc cc ccc ccc cccc cccc cccc cccc ccccc ccccc ccccc ccccc
%f  0.0000000  0.000000000  0.00000000000  0.000000000000000
%f  0.0000000  0.000000000  0.00000000000  0.000000000000000
%i    0    0    0    0      0      0      0      0         0
%i    0    0    0    0      0      0      0      0         0
/* INFORMATION & ANALYSIS CENTER (IAC) OF MCC   (RAPID DATA)
/* S/V CLOCKS ARE ALIGNED TO GPS & GLONASS TIME RESPECTIVELY
/* USING THE BROADCAST EPHEMERIS                            
/* PCV:IGS14_2045 OL/AL:FES2004  NONE     YN ORB:CoN CLK:CoN
*  2019 05 13 19 30  0.00000000
PC01 -32351.702982  27044.476603   -809.678173    580.097711
PC02   4400.855156  41927.687417    347.687011    161.795951
PC03      0.000000      0.000000      0.000000 999999.999999
PC04 -39600.600180  14473.400284   -541.868306   -227.738834
PC05  21884.077574  36075.412029    332.456941   -120.858080
PC06 -13674.278398  21031.509838  34198.613327    831.039529
PC07 -24733.251884  32573.998179 -11064.203520    -13.457972
PC08  -8510.301237  34830.505565 -21885.232374    157.025485
PC09   5124.207196  27608.020617  31776.119418    760.568921
PC10 -11223.837602  33559.584584 -23088.564622   -748.827912
PC11 -22021.455159 -11459.727251 -12748.231066   -150.475285
PC12  -9446.348396 -22750.155159  13246.204853    664.226308
PC13   1347.164464  41312.641353  -7642.636614   -710.881488
PC14 -19571.385182  -8205.609734 -18029.694242    618.536316
PC16  -8837.646967  22503.195612  34575.006583   -742.739810
PE01  11504.545818 -25131.451036  10583.199202   -603.956885
PE02 -11453.937016  25133.011398 -10643.041868     60.102671
PE03  -5055.610336  16503.253957  24055.685019   -165.725733
PE04 -16757.364510 -16002.822726 -18408.316098   -281.116372
PE05 -24050.699429   7327.837991  15632.593592   -484.263622
PE07  28895.644533   6106.811593   1915.480440   -186.975691
PE08  16973.805675  15742.218643  18448.382450   6356.756179
PE09 -28969.997739  -5822.962124  -1863.895587   6440.673899
PE11 -18684.838870 -10822.489063 -20238.253957   5695.271938
PE12 -13061.207495 -26257.474376  -3910.298025   6397.991208
PE13  18688.118980  10952.851437  20184.523185    386.999779
PE14  22174.687319   3501.382386  11008.176027   -565.464638
PE15  13375.424798  26066.883995   4264.317986    910.560893
PE18 -21811.119129   7168.772408 -21968.745387   -663.182221
PE19   7210.751698 -15857.246229 -23921.528575     -6.449673
PE21  21879.064586 -18017.411218  -8533.441781   -533.799283
PE24 -19489.042052    486.609904  22253.050499   6083.134011
PE25 -21891.053236  17988.685307   8575.425874   1805.498014
PE26  13312.468011 -10593.486174  24226.223409   4573.532574
PE27  19294.706394   -262.329794 -22447.659179    470.628145
PE30   5600.075887  17460.048398 -23248.841623   4874.709202
PE31  -5404.235242 -17607.237104  23171.278846   -464.712273
PE33   -197.655653 -25956.463388  14220.918145   -470.232639
PE36 -13061.036335  10648.287032 -24330.362566    712.626950
PG01  13339.533098 -11019.244331  19871.808291    -15.546143
PG02 -13788.536726 -13172.697433 -17948.194533   -212.319570
PG03  23369.533848 -12358.890128   1991.402000    187.973849
PG04   -359.566698 -16907.688658 -20468.356413    159.854451
PG05 -19685.080153  -2644.647870 -17850.614227      0.925679
PG06  -7085.462806 -23608.454428  -9799.979829    206.430853
PG07   7477.628326 -22777.872448 -10639.726677    -23.568087
PG08  23580.336411   3366.040166  12000.286172   -143.457812
PG09   6433.732069 -14027.316930 -21656.533066    411.938710
PG10   -834.367894  17053.198493  20357.819934     47.305257
PG11  14687.380276  -6493.453605  20622.205368   -607.409216
PG12 -24213.736329  10228.845319   2861.989930    242.776295
PG13 -22968.652846 -12236.921039   5315.310909    -63.803228
PG14  16605.799626  18820.807549   9287.200506    -80.624795
PG15 -23634.264292   -380.748907  12227.770548   -313.198987
PG16  19962.357208   3328.376179 -17615.383406    -39.816541
PG17  -9456.295356 -18919.125643  16526.461317     54.188286
PG18  15101.751904   -902.989940  21342.730691     52.836920
PG19 -15995.062338 -18785.360061   9424.252879   -319.406943
PG20  -9333.617863  20425.905413  13963.764749    524.691096
PG21  -1933.554998  25842.064774  -5365.468047   -193.497192
PG22  23579.310784  -7733.854917   9600.228315   -700.292377
PG23  18328.285212  -5291.173340 -18307.171745   -186.362995
PG24 -14634.455123   7504.128313  20643.502486    -66.060450
PG25 -18022.065621  17477.332861  -8479.338044   -755.882677
PG26  11607.125134  10702.534589 -21396.581514    200.504669
PG27  23774.821932  12124.133049   1334.957229   -131.049025
PG28   2971.458789 -16921.339873  20888.686234    767.824217
PG29 -11371.004823   9923.503600 -21890.068367    202.473561
PG30    703.223575 -26445.684069      6.478795   -103.989108
PG31   7579.444466  22598.158475 -11235.611815     38.418030
PG32  12354.782042  18510.875357  14641.213606    -89.261243
PJ01 -30093.351038  27229.534538  16578.885488   -306.232005
PJ02 -30045.405125  28006.835789  13887.993166      3.089335
PJ03 -25515.640401  17021.122676 -24319.106777      0.083394
PJ07 -25376.930155  33675.694157     30.057022     -0.011337
PR01 -24890.974478   3733.147095   4207.634444     43.739372
PR02 -11002.679017  10309.694195  20603.820616    368.390733
PR03   8360.062006  10058.022043  21953.920798     -4.899643
PR04  23137.802163   3620.826759  10149.904670    306.129281
PR05  24256.144945  -4386.289494  -6583.927881     28.031615
PR07  -8835.802664  -9927.193381 -21724.280719    -19.931022
PR08 -22782.182347  -3947.689166 -10707.376142     17.780386
PR09  10115.161500 -23151.216406   3258.655195     69.497134
PR10   1037.026423 -18908.768325  17020.741436     49.715850
PR11 -10696.400042  -3344.324169  22926.011176    -66.001730
PR13 -10749.097908  23094.364013  -1419.331794    -23.602848
PR14   -650.348864  18995.858266 -17012.505463     38.905404
PR15  10074.357846   4198.247937 -23038.736851    101.930666
PR16  15010.466803 -13474.977179 -15712.917277      9.550166
PR17  10950.074381  22208.136362  -6059.459173    227.587635
PR18  16318.236327  16355.133268  10895.532808     -6.966607
PR19  12758.288943   1972.942711  21999.782957    -30.487716
PR20   1183.122770 -15486.615151  20222.596965   -377.969259
PR21 -11306.236800 -22220.002023   5441.656899    -47.842847
PR22 -16225.916498 -14434.819442 -13267.474373    -18.999274
PR23 -10178.193262   3428.410508 -23144.764412    227.746384
PR24    355.875848  16752.878840 -19266.676389   -180.410269
PR26   2748.916733 -13633.303989  21398.352718  -4614.884795
EOF
